H1 CPF 01  gfz 2022 08 10 00  7221 tandemx   
H2 1003001  6202 36605    2022 08 10 00 59 42 2022 08 15 00 00 42   120 1 1  0 0 0
H9
10 0 59805  38862.000000  0   -1795882.266   2906024.452  -5989192.979
10 0 59805  38982.000000  0   -1946372.189   3670807.522  -5502183.733
10 0 59805  39102.000000  0   -2050228.725   4374096.209  -4918984.450
10 0 59805  39222.000000  0   -2106803.744   5002782.359  -4249703.573
10 0 59805  39342.000000  0   -2116484.623   5545024.022  -3505973.684
10 0 59805  39462.000000  0   -2080667.473   5990476.108  -2700757.202
10 0 59805  39582.000000  0   -2001708.845   6330498.041  -1848126.585
10 0 59805  39702.000000  0   -1882857.414   6558332.709   -963019.554
10 0 59805  39822.000000  0   -1728166.093   6669250.076    -60975.925
10 0 59805  39942.000000  0   -1542386.617   6660655.071    842139.529
10 0 59805  40062.000000  0   -1330848.960   6532152.741   1730426.963
10 0 59805  40182.000000  0   -1099327.885   6285564.511   2588242.093
10 0 59805  40302.000000  0    -853901.188   5924900.446   3400478.993
10 0 59805  40422.000000  0    -600803.650   5456289.481   4152841.572
10 0 59805  40542.000000  0    -346280.432   4887868.908   4832100.556
10 0 59805  40662.000000  0     -96441.400   4229630.381   5426328.497
10 0 59805  40782.000000  0     142878.101   3493235.074   5925104.298
10 0 59805  40902.000000  0     366246.363   2691799.279   6319693.309
10 0 59805  41022.000000  0     568752.979   1839653.427   6603194.077
10 0 59805  41142.000000  0     746112.540    952081.588   6770653.290
10 0 59805  41262.000000  0     894752.259     45044.997   6819146.363
10 0 59805  41382.000000  0    1011882.356   -865103.795   6747825.443
10 0 59805  41502.000000  0    1095547.972  -1761915.485   6557934.420
10 0 59805  41622.000000  0    1144661.928  -2629140.969   6252788.933
10 0 59805  41742.000000  0    1159017.735  -3451027.173   5837722.398
10 0 59805  41862.000000  0    1139281.856  -4212605.668   5319996.464
10 0 59805  41982.000000  0    1086967.479  -4899967.769   4708679.325
10 0 59805  42102.000000  0    1004389.194  -5500524.732   4014493.950
10 0 59805  42222.000000  0     894599.067  -6003248.451   3249634.311
10 0 59805  42342.000000  0     761305.593  -6398884.087   2427551.775
10 0 59805  42462.000000  0     608776.282  -6680129.818   1562717.096
10 0 59805  42582.000000  0     441727.004  -6841780.060    670362.129
10 0 59805  42702.000000  0     265200.733  -6880829.950   -233795.589
10 0 59805  42822.000000  0      84437.689  -6796533.081  -1133840.619
10 0 59805  42942.000000  0     -95257.759  -6590411.763  -2013949.068
10 0 59805  43062.000000  0    -268650.489  -6266222.812  -2858673.454
10 0 59805  43182.000000  0    -430705.405  -5829880.182  -3653218.855
10 0 59805  43302.000000  0    -576712.534  -5289335.295  -4383704.675
10 0 59805  43422.000000  0    -702402.945  -4654418.420  -5037405.064
10 0 59805  43542.000000  0    -804052.954  -3936647.970  -5602964.351
10 0 59805  43662.000000  0    -878574.352  -3149011.687  -6070585.586
10 0 59805  43782.000000  0    -923588.936  -2305724.769  -6432189.672
10 0 59805  43902.000000  0    -937486.338  -1421969.897  -6681543.315
10 0 59805  44022.000000  0    -919464.506   -513625.017  -6814355.714
10 0 59805  44142.000000  0    -869552.071    403018.077  -6828344.555
10 0 59805  44262.000000  0    -788611.796   1311539.190  -6723269.731
10 0 59805  44382.000000  0    -678326.044   2195676.034  -6500936.974
10 0 59805  44502.000000  0    -541164.376   3039607.901  -6165170.684
10 0 59805  44622.000000  0    -380332.830   3828234.694  -5721756.629
10 0 59805  44742.000000  0    -199705.675   4547446.180  -5178351.894
10 0 59805  44862.000000  0      -3741.202   5184376.543  -4544364.309
10 0 59805  44982.000000  0     202617.191   5727641.586  -3830800.676
10 0 59805  45102.000000  0     414053.323   6167551.899  -3050084.504
10 0 59805  45222.000000  0     625001.626   6496297.296  -2215846.343
10 0 59805  45342.000000  0     829779.101   6708098.680  -1342688.821
10 0 59805  45462.000000  0    1022722.797   6799321.954   -445929.753
10 0 59805  45582.000000  0    1198329.468   6768550.366    458671.442
10 0 59805  45702.000000  0    1351393.661   6616611.805   1355198.242
10 0 59805  45822.000000  0    1477139.644   6346561.206   2227864.862
10 0 59805  45942.000000  0    1571344.683   5963619.450   3061302.260
10 0 59805  46062.000000  0    1630451.062   5475069.345   3840836.515
10 0 59805  46182.000000  0    1651663.029   4890109.765   4552753.510
10 0 59805  46302.000000  0    1633027.587   4219672.854   5184544.252
10 0 59805  46422.000000  0    1573494.187   3476207.396   5725123.749
10 0 59805  46542.000000  0    1472955.544   2673440.046   6165019.922
10 0 59805  46662.000000  0    1332267.716   1826115.665   6496535.390
10 0 59805  46782.000000  0    1153249.094    949721.156   6713876.492
10 0 59805  46902.000000  0     938658.476     60199.722   6813247.566
10 0 59805  47022.000000  0     692152.821   -826337.815   6792913.191
10 0 59805  47142.000000  0     418224.746  -1693904.762   6653228.158
10 0 59805  47262.000000  0     122120.528  -2526926.772   6396631.651
10 0 59805  47382.000000  0    -190259.961  -3310522.609   6027607.126
10 0 59805  47502.000000  0    -512478.530  -4030771.133   5552606.031
10 0 59805  47622.000000  0    -837687.591  -4674959.777   4979941.029
10 0 59805  47742.000000  0   -1158772.001  -5231815.199   4319649.590
10 0 59805  47862.000000  0   -1468501.765  -5691711.085   3583323.304
10 0 59805  47982.000000  0   -1759690.585  -6046844.302   2783905.522
10 0 59805  48102.000000  0   -2025357.646  -6291376.057   1935463.608
10 0 59805  48222.000000  0   -2258889.039  -6421535.691   1052937.964
10 0 59805  48342.000000  0   -2454192.943  -6435683.115    151872.264
10 0 59805  48462.000000  0   -2605845.503  -6334328.669   -751868.502
10 0 59805  48582.000000  0   -2709223.833  -6120109.437  -1642386.226
10 0 59805  48702.000000  0   -2760623.059  -5797722.725  -2504037.653
10 0 59805  48822.000000  0   -2757354.253  -5373818.690  -3321716.142
10 0 59805  48942.000000  0   -2697820.336  -4856854.412  -4081120.671
10 0 59805  49062.000000  0   -2581568.466  -4256914.650  -4769005.257
10 0 59805  49182.000000  0   -2409318.698  -3585505.556  -5373405.131
10 0 59805  49302.000000  0   -2182969.115  -2855326.349  -5883837.191
10 0 59805  49422.000000  0   -1905577.197  -2080023.560  -6291472.467
10 0 59805  49542.000000  0   -1581317.195  -1273932.835  -6589277.814
10 0 59805  49662.000000  0   -1215416.080   -451814.263  -6772125.349
10 0 59805  49782.000000  0    -814069.763    371414.088  -6836870.537
10 0 59805  49902.000000  0    -384339.408   1180940.208  -6782400.088
10 0 59805  50022.000000  0      65969.965   1962317.651  -6609648.683
10 0 59805  50142.000000  0     528446.286   2701716.588  -6321585.812
10 0 59805  50262.000000  0     994224.147   3386165.272  -5923171.984
10 0 59805  50382.000000  0    1454150.701   4003776.316  -5421281.067
10 0 59805  50502.000000  0    1898961.346   4543954.236  -4824592.880
10 0 59805  50622.000000  0    2319463.694   4997582.888  -4143454.980
10 0 59805  50742.000000  0    2706725.385   5357187.419  -3389712.591
10 0 59805  50862.000000  0    3052262.189   5617066.887  -2576510.779
10 0 59805  50982.000000  0    3348223.120   5773395.056  -1718069.737
10 0 59805  51102.000000  0    3587567.182   5824285.298   -829436.599
10 0 59805  51222.000000  0    3764226.645   5769817.486     73781.958
10 0 59805  51342.000000  0    3873252.636   5612025.257    975700.136
10 0 59805  51462.000000  0    3910939.657   5354843.229   1860440.093
10 0 59805  51582.000000  0    3874925.701   5004016.854   2712418.987
10 0 59805  51702.000000  0    3764265.057   4566976.867   3516633.486
10 0 59805  51822.000000  0    3579470.388   4052677.008   4258929.852
10 0 59805  51942.000000  0    3322527.450   3471406.790   4926256.486
10 0 59805  52062.000000  0    2996875.550   2834579.788   5506896.828
10 0 59805  52182.000000  0    2607359.221   2154501.942   5990670.987
10 0 59805  52302.000000  0    2160154.869   1444129.298   6369109.075
10 0 59805  52422.000000  0    1662669.514    716817.079   6635594.137
10 0 59805  52542.000000  0    1123414.975    -13932.490   6785470.843
10 0 59805  52662.000000  0     551860.842   -734719.523   6816122.595
10 0 59805  52782.000000  0     -41732.264  -1432492.661   6727015.260
10 0 59805  52902.000000  0    -646497.144  -2094785.221   6519705.405
10 0 59805  53022.000000  0   -1251158.748  -2709938.111   6197813.721
10 0 59805  53142.000000  0   -1844242.124  -3267305.115   5766964.411
10 0 59805  53262.000000  0   -2414288.476  -3757439.183   5234694.166
10 0 59805  53382.000000  0   -2950078.579  -4172257.587   4610328.202
10 0 59805  53502.000000  0   -3440857.761  -4505181.147   3904821.858
10 0 59805  53622.000000  0   -3876555.093  -4751243.851   3130570.692
10 0 59805  53742.000000  0   -4247992.266  -4907171.363   2301193.502
10 0 59805  53862.000000  0   -4547079.444  -4971426.853   1431291.167
10 0 59805  53982.000000  0   -4766992.424  -4944221.172    536184.410
10 0 59805  54102.000000  0   -4902326.088  -4827487.416   -368363.085
10 0 59805  54222.000000  0   -4949220.566  -4624820.583  -1266431.098
10 0 59805  54342.000000  0   -4905455.834  -4341383.104  -2142232.909
10 0 59805  54462.000000  0   -4770511.915  -3983778.259  -2980400.985
10 0 59805  54582.000000  0   -4545594.185  -3559896.336  -3766260.926
10 0 59805  54702.000000  0   -4233624.499  -3078738.695  -4486089.230
10 0 59805  54822.000000  0   -3839198.629  -2550223.515  -5127350.568
10 0 59805  54942.000000  0   -3368511.327  -1984978.279  -5678909.806
10 0 59805  55062.000000  0   -2829252.067  -1394124.319  -6131216.242
10 0 59805  55182.000000  0   -2230473.807   -789057.540  -6476458.488
10 0 59805  55302.000000  0   -1582436.656   -181230.049  -6708687.817
99
